ONEWEB-0053             
1 45157U 20008AC  26194.54332046  .00000682  00000+0  19162-2 0  9997
2 45157  87.8810  31.0302 0001436  69.7801 290.3481 13.10370425311367
ONEWEB-0054             
1 45158U 20008AD  26194.50259223 -.00000505  00000+0 -14839-2 0  9991
2 45158  87.8828  31.0259 0001908  90.0126 270.1220 13.10376426311475
ONEWEB-0056             
1 45159U 20008AE  26194.47360536  .00000280  00000+0  76514-3 0  9995
2 45159  87.8819  31.0232 0002084  86.5355 273.6011 13.10369373311623
ONEWEB-0057             
1 45160U 20008AF  26194.49084045 -.00000491  00000+0 -14431-2 0  9992
2 45160  87.8818  31.0318 0001591  71.5715 288.5585 13.10370802311793
ONEWEB-0058             
1 45161U 20008AG  26194.47764060  .00003471  00000+0  99065-2 0  9998
2 45161  87.8821  31.0386 0001878  96.1432 263.9909 13.10353454311869
ONEWEB-0059             
1 45162U 20008AH  26194.47390946  .00000310  00000+0  85240-3 0  9997
2 45162  87.8812  31.0386 0001559  88.4546 271.6759 13.10368266311761
ONEWEB-0062             
1 45163U 20008AJ  26194.49735308 -.00000617  00000+0 -18043-2 0  9993
2 45163  87.8821  31.0233 0002026  95.1700 264.9659 13.10372091311631
ONEWEB-0065             
1 45164U 20008AK  26194.53130600  .00000643  00000+0  18042-2 0  9999
2 45164  87.8822  31.0239 0001835  76.6325 283.5006 13.10376591311332
ONEWEB-0066             
1 45424U 20020A   26194.46906720 -.00000228  00000+0 -67977-3 0  9991
2 45424  87.8881  15.8366 0001700  93.4044 266.7278 13.11422355306129
ONEWEB-0067             
1 45425U 20020B   26194.50680738  .00000252  00000+0  67628-3 0  9993
2 45425  87.8899  15.7558 0001724  85.0635 275.0690 13.11423777306186
ONEWEB-0080             
1 45426U 20020C   26194.50653381  .00000260  00000+0  69744-3 0  9998
2 45426  87.8894  15.8288 0002070  97.1816 262.9547 13.11414759306156
ONEWEB-0090             
1 45427U 20020D   26194.45904280 -.00000495  00000+0 -14336-2 0  9998
2 45427  87.8892  15.8422 0001879  91.7775 268.3568 13.11417406306116
ONEWEB-0061             
1 45428U 20020E   26194.49099339  .00000539  00000+0  14858-2 0  9999
2 45428  87.8886  15.8198 0001806  89.4285 270.7050 13.11416892306076
ONEWEB-0081             
1 45429U 20020F   26194.47247412 -.00000088  00000+0 -28308-3 0  9992
2 45429  87.8888  15.8332 0001625  88.3694 271.7620 13.11418307306189
ONEWEB-0069             
1 45430U 20020G   26194.47430770 -.00000017  00000+0 -84542-4 0  9990
2 45430  87.8887  15.8358 0001628  91.2765 268.8549 13.11420728306113
ONEWEB-0031             
1 45431U 20020H   26194.50979426  .00000165  00000+0  42905-3 0  9999
2 45431  87.8875  15.8316 0001961  94.8412 265.2940 13.11416144306105
ONEWEB-0027             
1 45432U 20020J   26194.45900737  .00000800  00000+0  20266-2 0  9994
2 45432  87.9144   0.6385 0002263  94.4476 265.6914 13.17647849309816
ONEWEB-0064             
1 45433U 20020K   26194.50808094  .00000307  00000+0  82936-3 0  9999
2 45433  87.8881  15.8252 0002046  94.4976 265.6385 13.11414394306134
ONEWEB-0018             
1 45434U 20020L   26194.46384826 -.00000374  00000+0 -10910-2 0  9995
2 45434  87.8881  15.8330 0001586 101.2050 258.9256 13.11417738306070
ONEWEB-0083             
1 45435U 20020M   26194.45395558 -.00000526  00000+0 -15194-2 0  9997
2 45435  87.8892  15.8310 0001901  93.3057 266.8289 13.11416980306117
ONEWEB-0095             
1 45436U 20020N   26194.44547865 -.00000339  00000+0 -99142-3 0  9995
2 45436  87.8889  15.8409 0002348  78.4487 281.6904 13.11414826306116
ONEWEB-0092             
1 45437U 20020P   26194.47600931  .00000072  00000+0  16629-3 0  9994
2 45437  87.8889  15.8258 0001692  95.1165 265.0156 13.11416036306232
ONEWEB-0085             
1 45438U 20020Q   26194.45367949 -.00000501  00000+0 -14495-2 0  9999
2 45438  87.8882  15.8359 0001849  90.2194 269.9146 13.11416789306114
ONEWEB-0096             
1 45439U 20020R   26194.45550983 -.00000533  00000+0 -15404-2 0  9998
2 45439  87.8886  15.8329 0001959  87.6998 272.4355 13.11416366306101
ONEWEB-0037             
1 45440U 20020S   26194.48178725  .00000334  00000+0  90763-3 0  9992
2 45440  87.8898  15.8004 0001977  86.7948 273.3406 13.11417776306148
ONEWEB-0042             
1 45441U 20020T   26194.44520750 -.00000341  00000+0 -99822-3 0  9993
2 45441  87.8887  15.8314 0001742  88.5336 271.5991 13.11415614306106
ONEWEB-0098             
1 45442U 20020U   26194.44109957 -.00000180  00000+0 -54487-3 0  9995
2 45442  87.8890  15.8415 0001943  94.5318 265.6032 13.11413670306080
ONEWEB-0055             
1 45443U 20020V   26194.49608564  .00000572  00000+0  15769-2 0  9991
2 45443  87.8888  15.8291 0001991  93.9520 266.1835 13.11416608306060
ONEWEB-0093             
1 45444U 20020W   26194.48234902  .00000388  00000+0  10671-2 0  9994
2 45444  87.8890  15.8279 0001528  86.7363 273.3939 13.10894714306120
ONEWEB-0029             
1 45445U 20020X   26194.50314352  .00000420  00000+0  11506-2 0  9991
2 45445  87.8882  15.8282 0001621  92.7184 267.4129 13.11414702306107
ONEWEB-0068             
1 45446U 20020Y   26194.47573462  .00000103  00000+0  25486-3 0  9998
2 45446  87.8888  15.8298 0001646  90.5891 269.5426 13.11418242306048
