OBJECT_NAME,OBJECT_ID,EPOCH,MEAN_MOTION,ECCENTRICITY,INCLINATION,RA_OF_ASC_NODE,ARG_OF_PERICENTER,MEAN_ANOMALY,EPHEMERIS_TYPE,CLASSIFICATION_TYPE,NORAD_CAT_ID,ELEMENT_SET_NO,REV_AT_EPOCH,BSTAR,MEAN_MOTION_DOT,MEAN_MOTION_DDOT
ONEWEB-0053,2020-008AC,2026-07-13T13:02:22.887744,13.10370425,.0001436,87.8810,31.0302,69.7801,290.3481,0,U,45157,999,31136,.19162E-2,.682E-5,0
ONEWEB-0054,2020-008AD,2026-07-13T12:03:43.968672,13.10376426,.0001908,87.8828,31.0259,90.0126,270.1220,0,U,45158,999,31147,-.14839E-2,-.505E-5,0
ONEWEB-0056,2020-008AE,2026-07-13T11:21:59.503104,13.10369373,.0002084,87.8819,31.0232,86.5355,273.6011,0,U,45159,999,31162,.76514E-3,.28E-5,0
ONEWEB-0057,2020-008AF,2026-07-13T11:46:48.614880,13.10370802,.0001591,87.8818,31.0318,71.5715,288.5585,0,U,45160,999,31179,-.14431E-2,-.491E-5,0
ONEWEB-0058,2020-008AG,2026-07-13T11:27:48.147840,13.10353454,.0001878,87.8821,31.0386,96.1432,263.9909,0,U,45161,999,31186,.99065E-2,.3471E-4,0
ONEWEB-0059,2020-008AH,2026-07-13T11:22:25.777344,13.10368266,.0001559,87.8812,31.0386,88.4546,271.6759,0,U,45162,999,31176,.8524E-3,.31E-5,0
ONEWEB-0062,2020-008AJ,2026-07-13T11:56:11.306112,13.10372091,.0002026,87.8821,31.0233,95.1700,264.9659,0,U,45163,999,31163,-.18043E-2,-.617E-5,0
ONEWEB-0065,2020-008AK,2026-07-13T12:45:04.838400,13.10376591,.0001835,87.8822,31.0239,76.6325,283.5006,0,U,45164,999,31133,.18042E-2,.643E-5,0
ONEWEB-0066,2020-020A,2026-07-13T11:15:27.406080,13.11422355,.00017,87.8881,15.8366,93.4044,266.7278,0,U,45424,999,30612,-.67977E-3,-.228E-5,0
ONEWEB-0067,2020-020B,2026-07-13T12:09:48.157632,13.11423777,.0001724,87.8899,15.7558,85.0635,275.0690,0,U,45425,999,30618,.67628E-3,.252E-5,0
ONEWEB-0080,2020-020C,2026-07-13T12:09:24.521184,13.11414759,.000207,87.8894,15.8288,97.1816,262.9547,0,U,45426,999,30615,.69744E-3,.26E-5,0
ONEWEB-0090,2020-020D,2026-07-13T11:01:01.297920,13.11417406,.0001879,87.8892,15.8422,91.7775,268.3568,0,U,45427,999,30611,-.14336E-2,-.495E-5,0
ONEWEB-0061,2020-020E,2026-07-13T11:47:01.828896,13.11416892,.0001806,87.8886,15.8198,89.4285,270.7050,0,U,45428,999,30607,.14858E-2,.539E-5,0
ONEWEB-0081,2020-020F,2026-07-13T11:20:21.763968,13.11418307,.0001625,87.8888,15.8332,88.3694,271.7620,0,U,45429,999,30618,-.28308E-3,-.88E-6,0
ONEWEB-0069,2020-020G,2026-07-13T11:23:00.185280,13.11420728,.0001628,87.8887,15.8358,91.2765,268.8549,0,U,45430,999,30611,-.84542E-4,-.17E-6,0
ONEWEB-0031,2020-020H,2026-07-13T12:14:06.224064,13.11416144,.0001961,87.8875,15.8316,94.8412,265.2940,0,U,45431,999,30610,.42905E-3,.165E-5,0
ONEWEB-0027,2020-020J,2026-07-13T11:00:58.236768,13.17647849,.0002263,87.9144,0.6385,94.4476,265.6914,0,U,45432,999,30981,.20266E-2,.8E-5,0
ONEWEB-0064,2020-020K,2026-07-13T12:11:38.193216,13.11414394,.0002046,87.8881,15.8252,94.4976,265.6385,0,U,45433,999,30613,.82936E-3,.307E-5,0
ONEWEB-0018,2020-020L,2026-07-13T11:07:56.489664,13.11417738,.0001586,87.8881,15.8330,101.2050,258.9256,0,U,45434,999,30607,-.1091E-2,-.374E-5,0
ONEWEB-0083,2020-020M,2026-07-13T10:53:41.762112,13.11416980,.0001901,87.8892,15.8310,93.3057,266.8289,0,U,45435,999,30611,-.15194E-2,-.526E-5,0
ONEWEB-0095,2020-020N,2026-07-13T10:41:29.355360,13.11414826,.0002348,87.8889,15.8409,78.4487,281.6904,0,U,45436,999,30611,-.99142E-3,-.339E-5,0
ONEWEB-0092,2020-020P,2026-07-13T11:25:27.204384,13.11416036,.0001692,87.8889,15.8258,95.1165,265.0156,0,U,45437,999,30623,.16629E-3,.72E-6,0
ONEWEB-0085,2020-020Q,2026-07-13T10:53:17.907936,13.11416789,.0001849,87.8882,15.8359,90.2194,269.9146,0,U,45438,999,30611,-.14495E-2,-.501E-5,0
ONEWEB-0096,2020-020R,2026-07-13T10:55:56.049312,13.11416366,.0001959,87.8886,15.8329,87.6998,272.4355,0,U,45439,999,30610,-.15404E-2,-.533E-5,0
ONEWEB-0037,2020-020S,2026-07-13T11:33:46.418400,13.11417776,.0001977,87.8898,15.8004,86.7948,273.3406,0,U,45440,999,30614,.90763E-3,.334E-5,0
ONEWEB-0042,2020-020T,2026-07-13T10:41:05.928000,13.11415614,.0001742,87.8887,15.8314,88.5336,271.5991,0,U,45441,999,30610,-.99822E-3,-.341E-5,0
ONEWEB-0098,2020-020U,2026-07-13T10:35:11.002848,13.11413670,.0001943,87.8890,15.8415,94.5318,265.6032,0,U,45442,999,30608,-.54487E-3,-.18E-5,0
ONEWEB-0055,2020-020V,2026-07-13T11:54:21.799296,13.11416608,.0001991,87.8888,15.8291,93.9520,266.1835,0,U,45443,999,30606,.15769E-2,.572E-5,0
ONEWEB-0093,2020-020W,2026-07-13T11:34:34.955328,13.10894714,.0001528,87.8890,15.8279,86.7363,273.3939,0,U,45444,999,30612,.10671E-2,.388E-5,0
ONEWEB-0029,2020-020X,2026-07-13T12:04:31.600128,13.11414702,.0001621,87.8882,15.8282,92.7184,267.4129,0,U,45445,999,30610,.11506E-2,.42E-5,0
ONEWEB-0068,2020-020Y,2026-07-13T11:25:03.471168,13.11418242,.0001646,87.8888,15.8298,90.5891,269.5426,0,U,45446,999,30604,.25486E-3,.103E-5,0
